DELTA 2 R/B(1)          
1 20453U 90008B   26023.56160602  .00077895  00000+0  10948-2 0  9999
2 20453  35.6054 109.6166 0100635 200.9380 158.7216 15.49685621919113
COSMOS 2058             
1 20465U 90010A   26023.61962909  .00005345  00000+0  31889-3 0  9990
2 20465  82.4655  91.8270 0011328 123.9679 236.2629 15.10898997935439
SL-14 R/B               
1 20466U 90010B   26023.49707986  .00000914  00000+0  10774-3 0  9996
2 20466  82.5045 309.8340 0021420  88.7627 271.6042 14.83521572921785
SL-14 R/B               
1 20511U 90018B   26023.40376256  .00000768  00000+0  93577-4 0  9998
2 20511  82.5203 265.4267 0015055 238.7061 121.2680 14.82096505915876
HST                     
1 20580U 90037B   26023.58295694  .00011605  00000+0  39571-3 0  9995
2 20580  28.4682 347.5385 0001664 336.4456  23.6063 15.28706890766409
SL-16 R/B               
1 20625U 90046B   26023.45437017 -.00000158  00000+0 -56723-4 0  9990
2 20625  70.9994  32.9142 0013952   2.6103 357.5090 14.15007767841996
COSMOS 2084             
1 20663U 90055A   26023.55556450  .00004818  00000+0  34658-3 0  9993
2 20663  62.7905 129.4803 0024556 181.1800 178.9247 15.05333699929525
SL-6 R/B(2)             
1 20666U 90055D   26023.47729804  .00003454  00000+0  26693-3 0  9997
2 20666  62.7836  47.5718 0018223 332.6603  27.3535 15.03320819931397
SL-8 R/B                
1 20775U 90078B   26023.19271340  .00024938  00000+0  74813-3 0  9996
2 20775  82.9048 292.1727 0368291 166.4189 194.7282 14.87442169802535
SL-8 R/B                
1 21088U 91006B   26023.51547995  .00000017  00000+0  17022-5 0  9997
2 21088  82.9407 203.6362 0022905 158.8494 255.0653 13.77491985757852
OKEAN-3                 
1 21397U 91039A   26023.45650694  .00005223  00000+0  37101-3 0  9992
2 21397  82.5159  20.6515 0015898 119.9503 240.3305 15.04419562858232
COSMOS 2151             
1 21422U 91042A   26023.58878904  .00003187  00000+0  25456-3 0  9992
2 21422  82.4982 127.1724 0011996 205.7609 154.3019 14.99903568856438
