CCSDS_OMM_VERS = 2.0
CREATION_DATE  = 
ORIGINATOR     = 

OBJECT_NAME    = DELTA 2 R/B(1)
OBJECT_ID      = 1990-008B
CENTER_NAME    = EARTH
REF_FRAME      = TEME
TIME_SYSTEM    = UTC
MEAN_ELEMENT_THEORY = SGP/SGP4

EPOCH          = 2026-01-23T13:28:42.760128
MEAN_MOTION    = 15.49685621
ECCENTRICITY   = .0100635
INCLINATION    = 35.6054
RA_OF_ASC_NODE = 109.6166
ARG_OF_PERICENTER = 200.9380
MEAN_ANOMALY   = 158.7216

EPHEMERIS_TYPE = 0
CLASSIFICATION_TYPE = U
NORAD_CAT_ID   = 20453
ELEMENT_SET_NO = 999
REV_AT_EPOCH   = 91911
BSTAR          = .10947666E-2
MEAN_MOTION_DOT = .77895E-3
MEAN_MOTION_DDOT = 0

CCSDS_OMM_VERS = 2.0
CREATION_DATE  = 
ORIGINATOR     = 

OBJECT_NAME    = COSMOS 2058
OBJECT_ID      = 1990-010A
CENTER_NAME    = EARTH
REF_FRAME      = TEME
TIME_SYSTEM    = UTC
MEAN_ELEMENT_THEORY = SGP/SGP4

EPOCH          = 2026-01-23T14:52:15.953376
MEAN_MOTION    = 15.10898997
ECCENTRICITY   = .00113288
INCLINATION    = 82.4655
RA_OF_ASC_NODE = 91.8270
ARG_OF_PERICENTER = 123.9679
MEAN_ANOMALY   = 236.2629

EPHEMERIS_TYPE = 0
CLASSIFICATION_TYPE = U
NORAD_CAT_ID   = 20465
ELEMENT_SET_NO = 999
REV_AT_EPOCH   = 93543
BSTAR          = .3188919E-3
MEAN_MOTION_DOT = .5345E-4
MEAN_MOTION_DDOT = 0

CCSDS_OMM_VERS = 2.0
CREATION_DATE  = 
ORIGINATOR     = 

OBJECT_NAME    = SL-14 R/B
OBJECT_ID      = 1990-010B
CENTER_NAME    = EARTH
REF_FRAME      = TEME
TIME_SYSTEM    = UTC
MEAN_ELEMENT_THEORY = SGP/SGP4

EPOCH          = 2026-01-23T11:55:47.699904
MEAN_MOTION    = 14.83521572
ECCENTRICITY   = .002142
INCLINATION    = 82.5045
RA_OF_ASC_NODE = 309.8340
ARG_OF_PERICENTER = 88.7627
MEAN_ANOMALY   = 271.6042

EPHEMERIS_TYPE = 0
CLASSIFICATION_TYPE = U
NORAD_CAT_ID   = 20466
ELEMENT_SET_NO = 999
REV_AT_EPOCH   = 92178
BSTAR          = .10773543E-3
MEAN_MOTION_DOT = .914E-5
MEAN_MOTION_DDOT = 0

CCSDS_OMM_VERS = 2.0
CREATION_DATE  = 
ORIGINATOR     = 

OBJECT_NAME    = SL-14 R/B
OBJECT_ID      = 1990-018B
CENTER_NAME    = EARTH
REF_FRAME      = TEME
TIME_SYSTEM    = UTC
MEAN_ELEMENT_THEORY = SGP/SGP4

EPOCH          = 2026-01-23T09:41:25.085184
MEAN_MOTION    = 14.82096505
ECCENTRICITY   = .0015055
INCLINATION    = 82.5203
RA_OF_ASC_NODE = 265.4267
ARG_OF_PERICENTER = 238.7061
MEAN_ANOMALY   = 121.2680

EPHEMERIS_TYPE = 0
CLASSIFICATION_TYPE = U
NORAD_CAT_ID   = 20511
ELEMENT_SET_NO = 999
REV_AT_EPOCH   = 91587
BSTAR          = .93577333E-4
MEAN_MOTION_DOT = .768E-5
MEAN_MOTION_DDOT = 0

CCSDS_OMM_VERS = 2.0
CREATION_DATE  = 
ORIGINATOR     = 

OBJECT_NAME    = HST
OBJECT_ID      = 1990-037B
CENTER_NAME    = EARTH
REF_FRAME      = TEME
TIME_SYSTEM    = UTC
MEAN_ELEMENT_THEORY = SGP/SGP4

EPOCH          = 2026-01-23T13:59:27.479616
MEAN_MOTION    = 15.28706890
ECCENTRICITY   = .00016645
INCLINATION    = 28.4682
RA_OF_ASC_NODE = 347.5385
ARG_OF_PERICENTER = 336.4456
MEAN_ANOMALY   = 23.6063

EPHEMERIS_TYPE = 0
CLASSIFICATION_TYPE = U
NORAD_CAT_ID   = 20580
ELEMENT_SET_NO = 999
REV_AT_EPOCH   = 76640
BSTAR          = .3957112E-3
MEAN_MOTION_DOT = .11605E-3
MEAN_MOTION_DDOT = 0

CCSDS_OMM_VERS = 2.0
CREATION_DATE  = 
ORIGINATOR     = 

OBJECT_NAME    = SL-16 R/B
OBJECT_ID      = 1990-046B
CENTER_NAME    = EARTH
REF_FRAME      = TEME
TIME_SYSTEM    = UTC
MEAN_ELEMENT_THEORY = SGP/SGP4

EPOCH          = 2026-01-23T10:54:17.582688
MEAN_MOTION    = 14.15007767
ECCENTRICITY   = .00139524
INCLINATION    = 70.9994
RA_OF_ASC_NODE = 32.9142
ARG_OF_PERICENTER = 2.6103
MEAN_ANOMALY   = 357.5090

EPHEMERIS_TYPE = 0
CLASSIFICATION_TYPE = U
NORAD_CAT_ID   = 20625
ELEMENT_SET_NO = 999
REV_AT_EPOCH   = 84199
BSTAR          = -.56722778E-4
MEAN_MOTION_DOT = -.158E-5
MEAN_MOTION_DDOT = 0

CCSDS_OMM_VERS = 2.0
CREATION_DATE  = 
ORIGINATOR     = 

OBJECT_NAME    = COSMOS 2084
OBJECT_ID      = 1990-055A
CENTER_NAME    = EARTH
REF_FRAME      = TEME
TIME_SYSTEM    = UTC
MEAN_ELEMENT_THEORY = SGP/SGP4

EPOCH          = 2026-01-23T13:20:00.772800
MEAN_MOTION    = 15.05333699
ECCENTRICITY   = .00245568
INCLINATION    = 62.7905
RA_OF_ASC_NODE = 129.4803
ARG_OF_PERICENTER = 181.1800
MEAN_ANOMALY   = 178.9247

EPHEMERIS_TYPE = 0
CLASSIFICATION_TYPE = U
NORAD_CAT_ID   = 20663
ELEMENT_SET_NO = 999
REV_AT_EPOCH   = 92952
BSTAR          = .34657683E-3
MEAN_MOTION_DOT = .4818E-4
MEAN_MOTION_DDOT = 0

CCSDS_OMM_VERS = 2.0
CREATION_DATE  = 
ORIGINATOR     = 

OBJECT_NAME    = SL-6 R/B(2)
OBJECT_ID      = 1990-055D
CENTER_NAME    = EARTH
REF_FRAME      = TEME
TIME_SYSTEM    = UTC
MEAN_ELEMENT_THEORY = SGP/SGP4

EPOCH          = 2026-01-23T11:27:18.550656
MEAN_MOTION    = 15.03320819
ECCENTRICITY   = .00182234
INCLINATION    = 62.7836
RA_OF_ASC_NODE = 47.5718
ARG_OF_PERICENTER = 332.6603
MEAN_ANOMALY   = 27.3535

EPHEMERIS_TYPE = 0
CLASSIFICATION_TYPE = U
NORAD_CAT_ID   = 20666
ELEMENT_SET_NO = 999
REV_AT_EPOCH   = 93139
BSTAR          = .26692593E-3
MEAN_MOTION_DOT = .3454E-4
MEAN_MOTION_DDOT = 0

CCSDS_OMM_VERS = 2.0
CREATION_DATE  = 
ORIGINATOR     = 

OBJECT_NAME    = SL-8 R/B
OBJECT_ID      = 1990-078B
CENTER_NAME    = EARTH
REF_FRAME      = TEME
TIME_SYSTEM    = UTC
MEAN_ELEMENT_THEORY = SGP/SGP4

EPOCH          = 2026-01-23T04:37:30.437760
MEAN_MOTION    = 14.87442169
ECCENTRICITY   = .03682911
INCLINATION    = 82.9048
RA_OF_ASC_NODE = 292.1727
ARG_OF_PERICENTER = 166.4189
MEAN_ANOMALY   = 194.7282

EPHEMERIS_TYPE = 0
CLASSIFICATION_TYPE = U
NORAD_CAT_ID   = 20775
ELEMENT_SET_NO = 999
REV_AT_EPOCH   = 80253
BSTAR          = .74812708E-3
MEAN_MOTION_DOT = .24938E-3
MEAN_MOTION_DDOT = 0

CCSDS_OMM_VERS = 2.0
CREATION_DATE  = 
ORIGINATOR     = 

OBJECT_NAME    = SL-8 R/B
OBJECT_ID      = 1991-006B
CENTER_NAME    = EARTH
REF_FRAME      = TEME
TIME_SYSTEM    = UTC
MEAN_ELEMENT_THEORY = SGP/SGP4

EPOCH          = 2026-01-23T12:22:17.467680
MEAN_MOTION    = 13.77491985
ECCENTRICITY   = .00229055
INCLINATION    = 82.9407
RA_OF_ASC_NODE = 203.6362
ARG_OF_PERICENTER = 158.8494
MEAN_ANOMALY   = 255.0653

EPHEMERIS_TYPE = 0
CLASSIFICATION_TYPE = U
NORAD_CAT_ID   = 21088
ELEMENT_SET_NO = 999
REV_AT_EPOCH   = 75785
BSTAR          = .1702209E-5
MEAN_MOTION_DOT = .17E-6
MEAN_MOTION_DDOT = 0

CCSDS_OMM_VERS = 2.0
CREATION_DATE  = 
ORIGINATOR     = 

OBJECT_NAME    = OKEAN-3
OBJECT_ID      = 1991-039A
CENTER_NAME    = EARTH
REF_FRAME      = TEME
TIME_SYSTEM    = UTC
MEAN_ELEMENT_THEORY = SGP/SGP4

EPOCH          = 2026-01-23T10:57:22.199616
MEAN_MOTION    = 15.04419562
ECCENTRICITY   = .00158987
INCLINATION    = 82.5159
RA_OF_ASC_NODE = 20.6515
ARG_OF_PERICENTER = 119.9503
MEAN_ANOMALY   = 240.3305

EPHEMERIS_TYPE = 0
CLASSIFICATION_TYPE = U
NORAD_CAT_ID   = 21397
ELEMENT_SET_NO = 999
REV_AT_EPOCH   = 85823
BSTAR          = .37100742E-3
MEAN_MOTION_DOT = .5223E-4
MEAN_MOTION_DDOT = 0

CCSDS_OMM_VERS = 2.0
CREATION_DATE  = 
ORIGINATOR     = 

OBJECT_NAME    = COSMOS 2151
OBJECT_ID      = 1991-042A
CENTER_NAME    = EARTH
REF_FRAME      = TEME
TIME_SYSTEM    = UTC
MEAN_ELEMENT_THEORY = SGP/SGP4

EPOCH          = 2026-01-23T14:07:51.373056
MEAN_MOTION    = 14.99903568
ECCENTRICITY   = .00119965
INCLINATION    = 82.4982
RA_OF_ASC_NODE = 127.1724
ARG_OF_PERICENTER = 205.7609
MEAN_ANOMALY   = 154.3019

EPHEMERIS_TYPE = 0
CLASSIFICATION_TYPE = U
NORAD_CAT_ID   = 21422
ELEMENT_SET_NO = 999
REV_AT_EPOCH   = 85643
BSTAR          = .2545587E-3
MEAN_MOTION_DOT = .3187E-4
MEAN_MOTION_DDOT = 0

